STARLINK-4553           
1 53577U 22101BC  25286.60327738  .00001766  00000+0  12903-3 0  9999
2 53577  53.2186 354.1660 0001691 107.8031 252.3146 15.08830268175069
STARLINK-4556           
1 53578U 22101BD  25286.45974329  .00001217  00000+0  94568-4 0  9996
2 53578  53.2180 354.6937 0001683  93.8718 266.2466 15.08842167174220
STARLINK-4580           
1 53579U 22101BE  25286.58853377 -.00000118  00000+0  10704-4 0  9990
2 53579  53.2198 354.0742 0001312  94.3132 265.8010 15.08844533174244
CHUANGXIN 16A (CX-16A)  
1 53586U 22102A   25286.68989867  .00003205  00000+0  21167-3 0  9997
2 53586  28.9943 137.9985 0004861 292.4809  67.5276 15.04649591172343
BEIJING-3B              
1 53587U 22103A   25286.97999102  .00002415  00000+0  27172-3 0  9998
2 53587  97.8253   3.3163 0028470 133.3177 227.0419 14.87324560170492
STARLINK-4691           
1 53588U 22104A   25286.98332861 -.00002382  00000+0 -13172-3 0  9994
2 53588  53.2153 182.9604 0001691  83.0796 277.0388 15.08816201173941
STARLINK-4673           
1 53589U 22104B   25286.69992375 -.00000087  00000+0  12652-4 0  9997
2 53589  53.2161 184.0354 0001801  81.5975 278.5221 15.08828440173750
STARLINK-4689           
1 53590U 22104C   25286.97961934 -.00000070  00000+0  13667-4 0  9996
2 53590  53.2178 182.9366 0001426  89.1068 271.0088 15.08835265173819
STARLINK-4674           
1 53591U 22104D   25286.97593277 -.00000881  00000+0 -37251-4 0  9994
2 53591  53.2138 182.9167 0001551  83.6958 276.4211 15.08840850173814
STARLINK-4672           
1 53592U 22104E   25286.70825222 -.00000621  00000+0 -20924-4 0  9995
2 53592  53.2154 184.0894 0001499  82.7375 277.3787 15.08825613173758
STARLINK-4681           
1 53594U 22104G   25286.69255220 -.00000450  00000+0 -10187-4 0  9990
2 53594  53.2176 183.9924 0001611  87.3456 272.7721 15.08833311173899
STARLINK-4684           
1 53595U 22104H   25286.43127117  .00000426  00000+0  44882-4 0  9996
2 53595  53.2154 185.2028 0001607  85.1672 274.9503 15.08838262173710
STARLINK-4676           
1 53598U 22104L   25285.74307490  .00000004  00000+0  18348-4 0  9996
2 53598  53.2141 188.0169 0001486  96.2640 263.8521 15.08849139173283
STARLINK-4677           
1 53600U 22104N   25286.00538809  .00000302  00000+0  37084-4 0  9999
2 53600  53.2167 187.5012 0001611  85.6516 274.4660 15.08847116173319
STARLINK-4675           
1 53601U 22104P   25286.41652533  .00001056  00000+0  84414-4 0  9992
2 53601  53.2169 185.1110 0001310  89.4830 270.6312 15.08842821173389
STARLINK-4648           
1 53602U 22104Q   25286.68747986  .00000471  00000+0  47663-4 0  9994
2 53602  53.2153 178.9821 0001609  90.9400 269.1776 15.08843926173499
STARLINK-4692           
1 53603U 22104R   25286.97454895  .00002207  00000+0  15670-3 0  9992
2 53603  53.2128 177.9238 0001704  90.6315 269.4872 15.08846951173537
STARLINK-4690           
1 53604U 22104S   25286.41515421  .00000284  00000+0  35945-4 0  9996
2 53604  53.2200 180.1212 0001841  86.2032 273.9171 15.08838396173453
STARLINK-4693           
1 53605U 22104T   25286.01171975  .00000525  00000+0  51058-4 0  9996
2 53605  53.2179 186.8471 0001594  96.4656 263.6518 15.08842889173328
STARLINK-4590           
1 53606U 22104U   25286.96948545 -.00000936  00000+0 -40703-4 0  9999
2 53606  53.2145 172.8847 0002020  93.4203 266.7020 15.08836362173482
STARLINK-4591           
1 53607U 22104V   25286.96348367 -.00004304  00000+0 -25237-3 0  9993
2 53607  53.2151 177.8547 0001621  78.6376 281.4799 15.08858771173535
STARLINK-4647           
1 53608U 22104W   25286.97685679 -.00000189  00000+0  62376-5 0  9998
2 53608  53.2140 172.9315 0001512  92.9236 267.1929 15.08831454173485
